{"fetched_at":"2026-03-29T16:36:15Z","count":15609,"tles":[{"name":"STARLINK-31855","line1":"1 59838U 24097D   26087.61048941  .00035452  00000+0  12907-2 0  9990","line2":"2 59838  43.0036 167.2278 0001300 277.9285  82.1419 15.27605199104812","category":"Starlink"}]}